[{"OBJECT_NAME":"STARLINK-31633","OBJECT_ID":"2024-057M","EPOCH":"2026-03-09T09:45:49.015584","MEAN_MOTION":15.27573898,"ECCENTRICITY":0.00021075,"INCLINATION":43.0019,"RA_OF_ASC_NODE":188.8547,"ARG_OF_PERICENTER":277.048,"MEAN_ANOMALY":83.0132,"EPHEMERIS_TYPE":0,"CLASSIFICATION_TYPE":"U","NORAD_CAT_ID":59331,"ELEMENT_SET_NO":999,"REV_AT_EPOCH":10979,"BSTAR":-2.3067076e-5,"MEAN_MOTION_DOT":-8.97e-6,"MEAN_MOTION_DDOT":0},{"OBJECT_NAME":"SIMSAT 1","OBJECT_ID":"2000-026A","EPOCH":"2026-03-09T17:22:54.646176","MEAN_MOTION":15.27666538,"ECCENTRICITY":0.00084816,"INCLINATION":86.3501,"RA_OF_ASC_NODE":180.5413,"ARG_OF_PERICENTER":14.8337,"MEAN_ANOMALY":345.3157,"EPHEMERIS_TYPE":0,"CLASSIFICATION_TYPE":"U","NORAD_CAT_ID":26365,"ELEMENT_SET_NO":999,"REV_AT_EPOCH":42720,"BSTAR":0.00013499313,"MEAN_MOTION_DOT":3.69e-5,"MEAN_MOTION_DDOT":0}]
